[{"OBJECT_NAME":"STARLINK-32708","OBJECT_ID":"2025-003J","EPOCH":"2026-03-08T23:53:21.486048","MEAN_MOTION":15.27608468,"ECCENTRICITY":0.00036607,"INCLINATION":43.0005,"RA_OF_ASC_NODE":293.041,"ARG_OF_PERICENTER":246.3573,"MEAN_ANOMALY":113.6894,"EPHEMERIS_TYPE":0,"CLASSIFICATION_TYPE":"U","NORAD_CAT_ID":62495,"ELEMENT_SET_NO":999,"REV_AT_EPOCH":6644,"BSTAR":0.0016206507,"MEAN_MOTION_DOT":0.0004465,"MEAN_MOTION_DDOT":0},{"OBJECT_NAME":"OBJECT F","OBJECT_ID":"2021-022F","EPOCH":"2026-03-09T23:37:37.165152","MEAN_MOTION":15.31317672,"ECCENTRICITY":0.00120882,"INCLINATION":97.3982,"RA_OF_ASC_NODE":329.8375,"ARG_OF_PERICENTER":85.9268,"MEAN_ANOMALY":274.3355,"EPHEMERIS_TYPE":0,"CLASSIFICATION_TYPE":"U","NORAD_CAT_ID":47937,"ELEMENT_SET_NO":999,"REV_AT_EPOCH":27452,"BSTAR":0.00038690553,"MEAN_MOTION_DOT":0.00011656,"MEAN_MOTION_DDOT":0}]
